start=new Date('2022-09-09T00:00:00.000Z').valueOf();
sats=[{"MEAN_MOTION_DOT":"0.00002720","GP_ID":"212090325","OBJECT_TYPE":"PAYLOAD","SITE":"AFETR","MEAN_MOTION":"15.06395991","ARG_OF_PERICENTER":"76.8751","OBJECT_NAME":"STARLINK-1184","LAUNCH_DATE":"2020-01-29","TIME_SYSTEM":"UTC","ECCENTRICITY":"0.00013050","SEMIMAJOR_AXIS":"6925.361","EPHEMERIS_TYPE":"0","BSTAR":"0.00020145000000","ELEMENT_SET_NO":"999","INCLINATION":"53.0550","RA_OF_ASC_NODE":"223.5468","CENTER_NAME":"EARTH","CLASSIFICATION_TYPE":"U","RCS_SIZE":"LARGE","FILE":"3564431","MEAN_MOTION_DDOT":"0.0000000000000","DECAY_DATE":null,"REV_AT_EPOCH":"14440","COUNTRY_CODE":"US","MEAN_ANOMALY":"283.2383","OBJECT_ID":"2020-006BG","APOAPSIS":"548.130","PERIOD":"95.592","TLE_LINE2":"2 45098  53.0550 223.5468 0001305  76.8751 283.2383 15.06395991144409","NORAD_CAT_ID":"45098","REF_FRAME":"TEME","PERIAPSIS":"546.322","TLE_LINE1":"1 45098U 20006BG  22251.74002544  .00002720  00000-0  20145-3 0  9998","EPOCH":"2022-09-08T17:45:38.198016","MEAN_ELEMENT_THEORY":"SGP4"},{"MEAN_MOTION_DOT":"0.00001232","GP_ID":"212047628","SITE":"AFETR","MEAN_MOTION":"15.06387264","OBJECT_TYPE":"PAYLOAD","OBJECT_NAME":"STARLINK-1186","ARG_OF_PERICENTER":"65.6600","TIME_SYSTEM":"UTC","LAUNCH_DATE":"2020-01-29","ECCENTRICITY":"0.00017700","SEMIMAJOR_AXIS":"6925.388","INCLINATION":"53.0538","RA_OF_ASC_NODE":"225.5060","EPHEMERIS_TYPE":"0","BSTAR":"0.00010161000000","ELEMENT_SET_NO":"999","CENTER_NAME":"EARTH","CLASSIFICATION_TYPE":"U","FILE":"3563723","RCS_SIZE":"LARGE","DECAY_DATE":null,"MEAN_MOTION_DDOT":"0.0000000000000","COUNTRY_CODE":"US","REV_AT_EPOCH":"14434","MEAN_ANOMALY":"294.4573","OBJECT_ID":"2020-006BH","TLE_LINE2":"2 45099  53.0538 225.5060 0001770  65.6600 294.4573 15.06387264144343","NORAD_CAT_ID":"45099","APOAPSIS":"548.478","PERIOD":"95.593","REF_FRAME":"TEME","EPOCH":"2022-09-08T07:24:38.575584","TLE_LINE1":"1 45099U 20006BH  22251.30877981  .00001232  00000-0  10161-3 0  9990","PERIAPSIS":"546.027","MEAN_ELEMENT_THEORY":"SGP4"},{"CENTER_NAME":"EARTH","CLASSIFICATION_TYPE":"U","FILE":"3563723","RCS_SIZE":"LARGE","SEMIMAJOR_AXIS":"6925.382","INCLINATION":"53.0534","RA_OF_ASC_NODE":"225.3714","EPHEMERIS_TYPE":"0","BSTAR":"0.00008366700000","ELEMENT_SET_NO":"999","TIME_SYSTEM":"UTC","LAUNCH_DATE":"2020-01-29","ECCENTRICITY":"0.00015050","GP_ID":"212048375","MEAN_MOTION_DOT":"0.00000965","SITE":"AFETR","OBJECT_TYPE":"PAYLOAD","OBJECT_NAME":"STARLINK-1193","MEAN_MOTION":"15.06389077","ARG_OF_PERICENTER":"68.8660","MEAN_ELEMENT_THEORY":"SGP4","REF_FRAME":"TEME","TLE_LINE1":"1 45100U 20006BJ  22251.33826592  .00000965  00000-0  83667-4 0  9992","EPOCH":"2022-09-08T08:07:06.175488","PERIAPSIS":"546.205","OBJECT_ID":"2020-006BJ","MEAN_ANOMALY":"291.2489","TLE_LINE2":"2 45100  53.0534 225.3714 0001505  68.8660 291.2489 15.06389077144348","NORAD_CAT_ID":"45100","APOAPSIS":"548.289","PERIOD":"95.593","DECAY_DATE":null,"MEAN_MOTION_DDOT":"0.0000000000000","COUNTRY_CODE":"US","REV_AT_EPOCH":"14434"},{"PERIAPSIS":"546.426","TLE_LINE1":"1 45101U 20006BK  22251.66536628  .00001860  00000-0  14374-3 0  9990","EPOCH":"2022-09-08T15:58:07.646592","REF_FRAME":"TEME","MEAN_ELEMENT_THEORY":"SGP4","COUNTRY_CODE":"US","REV_AT_EPOCH":"14439","DECAY_DATE":null,"MEAN_MOTION_DDOT":"0.0000000000000","NORAD_CAT_ID":"45101","TLE_LINE2":"2 45101  53.0556 223.8723 0001173  59.1114 300.9991 15.06391801144393","PERIOD":"95.593","APOAPSIS":"548.051","MEAN_ANOMALY":"300.9991","OBJECT_ID":"2020-006BK","RA_OF_ASC_NODE":"223.8723","INCLINATION":"53.0556","EPHEMERIS_TYPE":"0","ELEMENT_SET_NO":"999","BSTAR":"0.00014374000000","SEMIMAJOR_AXIS":"6925.374","FILE":"3564431","RCS_SIZE":"LARGE","CLASSIFICATION_TYPE":"U","CENTER_NAME":"EARTH","MEAN_MOTION":"15.06391801","SITE":"AFETR","OBJECT_TYPE":"PAYLOAD","OBJECT_NAME":"STARLINK-1194","ARG_OF_PERICENTER":"59.1114","GP_ID":"212090083","MEAN_MOTION_DOT":"0.00001860","ECCENTRICITY":"0.00011730","TIME_SYSTEM":"UTC","LAUNCH_DATE":"2020-01-29"},{"OBJECT_TYPE":"PAYLOAD","SITE":"AFETR","ARG_OF_PERICENTER":"74.3738","OBJECT_NAME":"STARLINK-1195","MEAN_MOTION":"15.06389956","GP_ID":"212090826","MEAN_MOTION_DOT":"0.00001148","ECCENTRICITY":"0.00016400","TIME_SYSTEM":"UTC","LAUNCH_DATE":"2020-01-29","RA_OF_ASC_NODE":"222.8945","INCLINATION":"53.0539","EPHEMERIS_TYPE":"0","BSTAR":"0.00009598600000","ELEMENT_SET_NO":"999","SEMIMAJOR_AXIS":"6925.379","FILE":"3564431","RCS_SIZE":"LARGE","CLASSIFICATION_TYPE":"U","CENTER_NAME":"EARTH","COUNTRY_CODE":"US","REV_AT_EPOCH":"14442","DECAY_DATE":null,"MEAN_MOTION_DDOT":"0.0000000000000","NORAD_CAT_ID":"45102","TLE_LINE2":"2 45102  53.0539 222.8945 0001640  74.3738 285.7431 15.06389956144421","PERIOD":"95.593","APOAPSIS":"548.380","MEAN_ANOMALY":"285.7431","OBJECT_ID":"2020-006BL","TLE_LINE1":"1 45102U 20006BL  22251.88747293  .00001148  00000-0  95986-4 0  9995","EPOCH":"2022-09-08T21:17:57.661152","PERIAPSIS":"546.109","REF_FRAME":"TEME","MEAN_ELEMENT_THEORY":"SGP4"},{"CLASSIFICATION_TYPE":"U","CENTER_NAME":"EARTH","RCS_SIZE":"LARGE","FILE":"3564431","SEMIMAJOR_AXIS":"6925.399","BSTAR":"-0.00002260100000","EPHEMERIS_TYPE":"0","ELEMENT_SET_NO":"999","RA_OF_ASC_NODE":"223.3374","INCLINATION":"53.0524","LAUNCH_DATE":"2020-01-29","TIME_SYSTEM":"UTC","ECCENTRICITY":"0.00013020","GP_ID":"212089584","MEAN_MOTION_DOT":"-0.00000618","SITE":"AFETR","ARG_OF_PERICENTER":"82.4235","OBJECT_TYPE":"PAYLOAD","OBJECT_NAME":"STARLINK-1196","MEAN_MOTION":"15.06383606","MEAN_ELEMENT_THEORY":"SGP4","REF_FRAME":"TEME","EPOCH":"2022-09-08T18:53:17.911968","TLE_LINE1":"1 45103U 20006BM  22251.78701287 -.00000618  00000-0 -22601-4 0  9995","PERIAPSIS":"546.362","MEAN_ANOMALY":"277.6901","OBJECT_ID":"2020-006BM","PERIOD":"95.593","APOAPSIS":"548.165","NORAD_CAT_ID":"45103","TLE_LINE2":"2 45103  53.0524 223.3374 0001302  82.4235 277.6901 15.06383606144412","MEAN_MOTION_DDOT":"0.0000000000000","DECAY_DATE":null,"REV_AT_EPOCH":"14441","COUNTRY_CODE":"US"},{"ECCENTRICITY":"0.00013530","TIME_SYSTEM":"UTC","LAUNCH_DATE":"2020-02-17","SITE":"AFETR","OBJECT_TYPE":"PAYLOAD","ARG_OF_PERICENTER":"92.1599","OBJECT_NAME":"STARLINK-1138","MEAN_MOTION":"15.06405017","GP_ID":"212062281","MEAN_MOTION_DOT":"0.00007936","FILE":"3564096","RCS_SIZE":"LARGE","CENTER_NAME":"EARTH","CLASSIFICATION_TYPE":"U","INCLINATION":"53.0557","RA_OF_ASC_NODE":"23.1244","EPHEMERIS_TYPE":"0","ELEMENT_SET_NO":"999","BSTAR":"0.00055102000000","SEMIMAJOR_AXIS":"6925.333","TLE_LINE2":"2 45178  53.0557  23.1244 0001353  92.1599 267.9545 15.06405017141581","NORAD_CAT_ID":"45178","APOAPSIS":"548.135","PERIOD":"95.592","MEAN_ANOMALY":"267.9545","OBJECT_ID":"2020-012A","COUNTRY_CODE":"US","REV_AT_EPOCH":"14158","MEAN_MOTION_DDOT":"0.0000000000000","DECAY_DATE":null,"MEAN_ELEMENT_THEORY":"SGP4","TLE_LINE1":"1 45178U 20012A   22251.83955820  .00007936  00000-0  55102-3 0  9993","PERIAPSIS":"546.261","EPOCH":"2022-09-08T20:08:57.828480","REF_FRAME":"TEME"},{"ECCENTRICITY":"0.00013760","TIME_SYSTEM":"UTC","LAUNCH_DATE":"2020-02-17","SITE":"AFETR","OBJECT_TYPE":"PAYLOAD","ARG_OF_PERICENTER":"84.2618","OBJECT_NAME":"STARLINK-1143","MEAN_MOTION":"15.06395441","MEAN_MOTION_DOT":"0.00005099","GP_ID":"212090591","FILE":"3564431","RCS_SIZE":"LARGE","CLASSIFICATION_TYPE":"U","CENTER_NAME":"EARTH","RA_OF_ASC_NODE":"23.9834","INCLINATION":"53.0575","ELEMENT_SET_NO":"999","BSTAR":"0.00036102000000","EPHEMERIS_TYPE":"0","SEMIMAJOR_AXIS":"6925.363","NORAD_CAT_ID":"45179","TLE_LINE2":"2 45179  53.0575  23.9834 0001376  84.2618 275.8528 15.06395441142202","PERIOD":"95.592","APOAPSIS":"548.180","MEAN_ANOMALY":"275.8528","OBJECT_ID":"2020-012B","COUNTRY_CODE":"US","REV_AT_EPOCH":"14220","MEAN_MOTION_DDOT":"0.0000000000000","DECAY_DATE":null,"MEAN_ELEMENT_THEORY":"SGP4","PERIAPSIS":"546.275","TLE_LINE1":"1 45179U 20012B   22251.64325579  .00005099  00000-0  36102-3 0  9992","EPOCH":"2022-09-08T15:26:17.300256","REF_FRAME":"TEME"},{"MEAN_ELEMENT_THEORY":"SGP4","REF_FRAME":"TEME","PERIAPSIS":"531.277","TLE_LINE1":"1 45180U 20012C   22251.75284703  .00018983  00000-0  11210-2 0  9997","EPOCH":"2022-09-08T18:04:05.983392","OBJECT_ID":"2020-012C","MEAN_ANOMALY":"286.2733","NORAD_CAT_ID":"45180","TLE_LINE2":"2 45180  53.0524  19.8202 0000283  73.8289 286.2733 15.11550669142277","PERIOD":"95.266","APOAPSIS":"531.668","DECAY_DATE":null,"MEAN_MOTION_DDOT":"0.0000000000000","COUNTRY_CODE":"US","REV_AT_EPOCH":"14227","CLASSIFICATION_TYPE":"U","CENTER_NAME":"EARTH","FILE":"3564431","RCS_SIZE":"LARGE","SEMIMAJOR_AXIS":"6909.607","RA_OF_ASC_NODE":"19.8202","INCLINATION":"53.0524","ELEMENT_SET_NO":"999","EPHEMERIS_TYPE":"0","BSTAR":"0.00112100000000","TIME_SYSTEM":"UTC","LAUNCH_DATE":"2020-02-17","ECCENTRICITY":"0.00002830","MEAN_MOTION_DOT":"0.00018983","GP_ID":"212090333","SITE":"AFETR","OBJECT_TYPE":"PAYLOAD","MEAN_MOTION":"15.11550669","OBJECT_NAME":"STARLINK-1192","ARG_OF_PERICENTER":"73.8289"},{"TLE_LINE2":"2 45181  53.0553  23.1743 0001336  78.4484 281.6655 15.06403310141585","NORAD_CAT_ID":"45181","APOAPSIS":"548.129","PERIOD":"95.592","MEAN_ANOMALY":"281.6655","OBJECT_ID":"2020-012D","COUNTRY_CODE":"US","REV_AT_EPOCH":"14158","DECAY_DATE":null,"MEAN_MOTION_DDOT":"0.0000000000000","MEAN_ELEMENT_THEORY":"SGP4","TLE_LINE1":"1 45181U 20012D   22251.82849984  .00005147  00000-0  36413-3 0  9995","EPOCH":"2022-09-08T19:53:02.386176","PERIAPSIS":"546.278","REF_FRAME":"TEME","ECCENTRICITY":"0.00013360","TIME_SYSTEM":"UTC","LAUNCH_DATE":"2020-02-17","OBJECT_TYPE":"PAYLOAD","SITE":"AFETR","OBJECT_NAME":"STARLINK-1200","MEAN_MOTION":"15.06403310","ARG_OF_PERICENTER":"78.4484","MEAN_MOTION_DOT":"0.00005147","GP_ID":"212062388","FILE":"3564103","RCS_SIZE":"LARGE","CENTER_NAME":"EARTH","CLASSIFICATION_TYPE":"U","INCLINATION":"53.0553","RA_OF_ASC_NODE":"23.1743","BSTAR":"0.00036413000000","EPHEMERIS_TYPE":"0","ELEMENT_SET_NO":"999","SEMIMAJOR_AXIS":"6925.338"}];
